{
  "norad_id": 46047,
  "name": "STARLINK-1524",
  "history": [
    {
      "epoch": "2026-03-28T18:59:59.088768Z",
      "apogee_km": 476.1014095508217,
      "perigee_km": 474.23731022093307,
      "latitude_deg": 2.0619974744861432e-05,
      "longitude_deg": -86.0904156007547,
      "height_km": 476.4110379835439,
      "semi_major_axis_km": 6853.306359885877,
      "eccentricity": 0.000136,
      "inclination_deg": 53.1629,
      "raan_deg": 25.1128,
      "arg_perigee_deg": 111.6117,
      "mean_anomaly_deg": 248.5029,
      "mean_motion_rev_day": 15.30215309
    },
    {
      "epoch": "2026-03-29T01:16:11.321184Z",
      "apogee_km": 476.26957823895464,
      "perigee_km": 474.0587032909443,
      "latitude_deg": -4.607504903419483e-05,
      "longitude_deg": 178.38796385716404,
      "height_km": 476.5002842753319,
      "semi_major_axis_km": 6853.301140764949,
      "eccentricity": 0.0001613,
      "inclination_deg": 53.1622,
      "raan_deg": 23.8997,
      "arg_perigee_deg": 113.349,
      "mean_anomaly_deg": 246.768,
      "mean_motion_rev_day": 15.30217057
    },
    {
      "epoch": "2026-03-30T02:21:03.451104Z",
      "apogee_km": 476.5038257617871,
      "perigee_km": 473.99959752655195,
      "latitude_deg": -2.2404177573386795e-05,
      "longitude_deg": 156.28952797195848,
      "height_km": 476.6142458566684,
      "semi_major_axis_km": 6853.388711644169,
      "eccentricity": 0.0001827,
      "inclination_deg": 53.1628,
      "raan_deg": 19.0485,
      "arg_perigee_deg": 111.7887,
      "mean_anomaly_deg": 248.3308,
      "mean_motion_rev_day": 15.30187728
    },
    {
      "epoch": "2026-03-30T02:21:03.451968Z",
      "apogee_km": 476.50375722789886,
      "perigee_km": 473.99966606043927,
      "latitude_deg": -2.155041412348599e-05,
      "longitude_deg": 156.28952499813406,
      "height_km": 476.6142204188538,
      "semi_major_axis_km": 6853.388711644169,
      "eccentricity": 0.00018269,
      "inclination_deg": 53.1628,
      "raan_deg": 19.0485,
      "arg_perigee_deg": 111.7887,
      "mean_anomaly_deg": 248.3308,
      "mean_motion_rev_day": 15.30187728
    },
    {
      "epoch": "2026-03-30T11:45:22.593312Z",
      "apogee_km": 476.48795298559617,
      "perigee_km": 473.9756450512523,
      "latitude_deg": 7.938528400237851e-05,
      "longitude_deg": 13.003582397613759,
      "height_km": 476.65075178097993,
      "semi_major_axis_km": 6853.3687990184235,
      "eccentricity": 0.00018329,
      "inclination_deg": 53.1635,
      "raan_deg": 17.2285,
      "arg_perigee_deg": 114.5082,
      "mean_anomaly_deg": 245.6111,
      "mean_motion_rev_day": 15.30194397
    },
    {
      "epoch": "2026-03-30T19:35:37.881888Z",
      "apogee_km": 476.19744458253626,
      "perigee_km": 474.1816071182229,
      "latitude_deg": -1.4453545030903917e-05,
      "longitude_deg": -106.39976750995164,
      "height_km": 476.4331083470038,
      "semi_major_axis_km": 6853.32652585038,
      "eccentricity": 0.00014707,
      "inclination_deg": 53.1628,
      "raan_deg": 15.7108,
      "arg_perigee_deg": 110.0383,
      "mean_anomaly_deg": 250.0776,
      "mean_motion_rev_day": 15.30208555
    },
    {
      "epoch": "2026-03-31T01:51:50.380416Z",
      "apogee_km": 476.0609381840386,
      "perigee_km": 474.27400757578016,
      "latitude_deg": -6.034481017056381e-06,
      "longitude_deg": 158.0754564456182,
      "height_km": 476.29768170029774,
      "semi_major_axis_km": 6853.30447287991,
      "eccentricity": 0.00013037,
      "inclination_deg": 53.1613,
      "raan_deg": 14.4956,
      "arg_perigee_deg": 105.0485,
      "mean_anomaly_deg": 255.066,
      "mean_motion_rev_day": 15.30215941
    },
    {
      "epoch": "2026-04-01T04:30:46.173024Z",
      "apogee_km": 476.0988871324307,
      "perigee_km": 474.44954518915074,
      "latitude_deg": 3.0537142023562476e-05,
      "longitude_deg": 112.09038740626598,
      "height_km": 476.1777515408765,
      "semi_major_axis_km": 6853.411216160791,
      "eccentricity": 0.00012033,
      "inclination_deg": 53.1617,
      "raan_deg": 9.3374,
      "arg_perigee_deg": 90.3612,
      "mean_anomaly_deg": 269.7527,
      "mean_motion_rev_day": 15.30180191
    },
    {
      "epoch": "2026-04-02T21:16:09.596352Z",
      "apogee_km": 476.0296091046521,
      "perigee_km": 474.40413063379583,
      "latitude_deg": 3.6033243146793456e-05,
      "longitude_deg": -148.82081432412036,
      "height_km": 476.0140552257549,
      "semi_major_axis_km": 6853.353869869224,
      "eccentricity": 0.00011859,
      "inclination_deg": 53.1617,
      "raan_deg": 1.4476,
      "arg_perigee_deg": 82.8474,
      "mean_anomaly_deg": 277.2662,
      "mean_motion_rev_day": 15.30199397
    },
    {
      "epoch": "2026-04-03T20:46:56.680320Z",
      "apogee_km": 476.0624382613096,
      "perigee_km": 474.27920756578715,
      "latitude_deg": 3.617573075204005e-05,
      "longitude_deg": -147.0325452407039,
      "height_km": 476.25663919385323,
      "semi_major_axis_km": 6853.307822913548,
      "eccentricity": 0.0001301,
      "inclination_deg": 53.162,
      "raan_deg": 356.8977,
      "arg_perigee_deg": 102.1416,
      "mean_anomaly_deg": 257.9731,
      "mean_motion_rev_day": 15.30214819
    }
  ]
}